NORAD_CAT_ID,OBJECT_NAME,OBJECT_TYPE,EPOCH,MEAN_MOTION,ECCENTRICITY,INCLINATION,RA_OF_ASC_NODE,ARG_OF_PERICENTER,MEAN_ANOMALY,BSTAR,MEAN_MOTION_DOT,MEAN_MOTION_DDOT,TLE_LINE0,TLE_LINE1,TLE_LINE2,SEMIMAJOR_AXIS,PERIOD,APOGEE,PERIGEE,DECAYED
50814.0,STARLINK-3324,PAYLOAD,2022-12-02 17:20:42,15.08844109,0.0002581,53.216,124.567,48.7275,311.3939,0.00029141,4.353e-05,0.0,0 STARLINK-3324,1 50814U 22001M   22336.72271275  .00004353  00000-0  29141-3 0  9997,2 50814  53.2160 124.5670 0002581  48.7275 311.3939 15.08844109 50319,6917.868,95.437,541.518,537.947,0.0
50814.0,STARLINK-3324,PAYLOAD,2022-12-03 02:53:01,15.08843956,0.0002297,53.2156,122.7828,47.9997,312.119,0.00014196,1.972e-05,0.0,0 STARLINK-3324,1 50814U 22001M   22337.12015074  .00001972  00000-0  14196-3 0  9993,2 50814  53.2156 122.7828 0002297  47.9997 312.1190 15.08843956 51649,6917.868,95.437,541.322,538.144,0.0
50814.0,STARLINK-3324,PAYLOAD,2022-12-03 10:49:56,15.08843258,0.0002389,53.2169,121.2958,50.1092,310.011,4.9115e-05,4.93e-06,0.0,0 STARLINK-3324,1 50814U 22001M   22337.45135322  .00000493  00000-0  49115-4 0  9995,2 50814  53.2169 121.2958 0002389  50.1092 310.0110 15.08843258 50424,6917.87,95.437,541.388,538.0830000000002,0.0
50814.0,STARLINK-3324,PAYLOAD,2022-12-03 18:46:52,15.08863847,0.000224,53.217,119.8089,35.162,324.952,-0.00037345,-6.231e-05,0.0,0 STARLINK-3324,1 50814U 22001M   22337.78254937 -.00006231  00000-0 -37345-3 0  9994,2 50814  53.2170 119.8089 0002240  35.1620 324.9520 15.08863847 50470,6917.807,95.436,541.222,538.123,0.0
50814.0,STARLINK-3324,PAYLOAD,2022-12-04 09:05:20,15.08843812,0.0002377,53.2175,117.1327,47.1972,312.922,-2.5902e-05,-7.01e-06,0.0,0 STARLINK-3324,1 50814U 22001M   22338.37871215 -.00000701  00000-0 -25902-4 0  9997,2 50814  53.2175 117.1327 0002377  47.1972 312.9220 15.08843812 51830,6917.869000000002,95.437,541.378,538.089,0.0
50814.0,STARLINK-3324,PAYLOAD,2022-12-04 13:51:29,15.08850369,0.0002536,53.2171,116.2408,48.9774,311.1437,-9.1914e-06,-4.35e-06,0.0,0 STARLINK-3324,1 50814U 22001M   22338.57742690 -.00000435  00000-0 -91914-5 0  9994,2 50814  53.2171 116.2408 0002536  48.9774 311.1437 15.08850369 50590,6917.849,95.437,541.4680000000002,537.9590000000002,0.0
50814.0,STARLINK-3324,PAYLOAD,2022-12-04 17:02:15,15.08848131,0.0002476,53.2176,115.6468,48.1487,311.9716,5.9163e-05,6.54e-06,0.0,0 STARLINK-3324,1 50814U 22001M   22338.70990572  .00000654  00000-0  59163-4 0  9993,2 50814  53.2176 115.6468 0002476  48.1487 311.9716 15.08848131 51885,6917.856,95.437,541.433,538.008,0.0
50814.0,STARLINK-3324,PAYLOAD,2022-12-04 20:13:01,15.08850268,0.0002453,53.2175,115.0516,48.1692,311.951,7.7038e-05,9.38e-06,0.0,0 STARLINK-3324,1 50814U 22001M   22338.84238356  .00000938  00000-0  77038-4 0  9999,2 50814  53.2175 115.0516 0002453  48.1692 311.9510 15.08850268 50633,6917.849,95.437,541.411,538.0169999999998,0.0
50814.0,STARLINK-3324,PAYLOAD,2022-12-05 02:34:34,15.08849973,0.0002465,53.2176,113.862,48.66,311.4604,9.4384e-05,1.214e-05,0.0,0 STARLINK-3324,1 50814U 22001M   22339.10734192  .00001214  00000-0  94384-4 0  9999,2 50814  53.2176 113.8620 0002465  48.6600 311.4604 15.08849973 50677,6917.85,95.437,541.42,538.01,0.0
50814.0,STARLINK-3324,PAYLOAD,2022-12-05 15:17:39,15.08844605,0.0002512,53.2177,111.4837,49.4501,310.6709,7.5057e-05,9.06e-06,0.0,0 STARLINK-3324,1 50814U 22001M   22339.63726432  .00000906  00000-0  75057-4 0  9998,2 50814  53.2177 111.4837 0002512  49.4501 310.6709 15.08844605 50757,6917.866,95.437,541.469,537.994,0.0
50814.0,STARLINK-3324,PAYLOAD,2022-12-06 02:25:20,15.08859173,0.0002521,53.2178,109.4022,50.2065,309.9148,0.0002285,3.352e-05,0.0,0 STARLINK-3324,1 50814U 22001M   22340.10092938  .00003352  00000-0  22850-3 0  9999,2 50814  53.2178 109.4022 0002521  50.2065 309.9148 15.08859173 52099,6917.821999999999,95.436,541.431,537.943,0.0
50814.0,STARLINK-3324,PAYLOAD,2022-12-06 15:08:25,15.08856247,0.0003205,53.2178,107.0233,62.7889,297.3429,0.0001413,1.962e-05,0.0,0 STARLINK-3324,1 50814U 22001M   22340.63085221  .00001962  00000-0  14130-3 0  9991,2 50814  53.2178 107.0233 0003205  62.7889 297.3429 15.08856247 52179,6917.831,95.437,541.913,537.479,0.0
50814.0,STARLINK-3324,PAYLOAD,2022-12-06 19:54:36,15.08840376,0.0002447,53.2179,106.1315,44.7966,315.3224,-3.1727e-05,-7.93e-06,0.0,0 STARLINK-3324,1 50814U 22001M   22340.82958439 -.00000793  00000-0 -31727-4 0  9997,2 50814  53.2179 106.1315 0002447  44.7966 315.3224 15.08840376 50936,6917.879,95.438,541.437,538.0509999999998,0.0
50814.0,STARLINK-3324,PAYLOAD,2022-12-07 18:10:00,15.08842197,0.0002445,53.2179,101.9683,46.0286,314.0907,-5.6178e-05,-1.182e-05,0.0,0 STARLINK-3324,1 50814U 22001M   22341.75694607 -.00001182  00000-0 -56178-4 0  9994,2 50814  53.2179 101.9683 0002445  46.0286 314.0907 15.08842197 51078,6917.874,95.437,541.43,538.047,0.0
50814.0,STARLINK-3324,PAYLOAD,2022-12-08 06:53:04,15.08848321,0.0002479,53.2182,99.5893,45.9434,314.1762,-5.6452e-05,-1.187e-05,0.0,0 STARLINK-3324,1 50814U 22001M   22342.28686039 -.00001187  00000-0 -56452-4 0  9993,2 50814  53.2182  99.5893 0002479  45.9434 314.1762 15.08848321 51151,6917.855,95.437,541.435,538.005,0.0
50814.0,STARLINK-3324,PAYLOAD,2022-12-08 14:49:59,15.08848468,0.0002401,53.218,98.1028,45.1599,314.9588,0.00016926,2.407e-05,0.0,0 STARLINK-3324,1 50814U 22001M   22342.61805323  .00002407  00000-0  16926-3 0  9994,2 50814  53.2180  98.1028 0002401  45.1599 314.9588 15.08848468 51205,6917.855,95.437,541.38,538.059,0.0
50814.0,STARLINK-3324,PAYLOAD,2022-12-09 08:19:14,15.0885013,0.0002872,53.2185,94.8369,49.2502,310.8739,0.00024988,3.692e-05,0.0,0 STARLINK-3324,1 50814U 22001M   22343.34669060  .00003692  00000-0  24988-3 0  9995,2 50814  53.2185  94.8369 0002872  49.2502 310.8739 15.08850130 51316,6917.849,95.437,541.701,537.7280000000002,0.0
50814.0,STARLINK-3324,PAYLOAD,2022-12-09 17:51:35,15.08821549,0.0002277,53.2186,93.0525,34.3837,325.7302,-4.6987e-05,-1.036e-05,0.0,0 STARLINK-3324,1 50814U 22001M   22343.74415824 -.00001036  00000-0 -46987-4 0  9992,2 50814  53.2186  93.0525 0002277  34.3837 325.7302 15.08821549 52647,6917.937,95.439,541.377,538.227,0.0
50814.0,STARLINK-3324,PAYLOAD,2022-12-10 06:34:40,15.08830403,0.0002204,53.2189,90.6709,33.9093,326.204,6.3974e-06,-1.86e-06,0.0,0 STARLINK-3324,1 50814U 22001M   22344.27407637 -.00000186  00000-0  63974-5 0  9994,2 50814  53.2189  90.6709 0002204  33.9093 326.2040 15.08830403 52729,6917.91,95.438,541.299,538.25,0.0
50814.0,STARLINK-3324,PAYLOAD,2022-12-10 12:56:13,15.08829788,0.0002321,53.2188,89.4797,41.6809,318.436,-5.6127e-05,-1.181e-05,0.0,0 STARLINK-3324,1 50814U 22001M   22344.53904059 -.00001181  00000-0 -56127-4 0  9991,2 50814  53.2188  89.4797 0002321  41.6809 318.4360 15.08829788 51497,6917.9119999999975,95.438,541.382,538.1709999999998,0.0
50814.0,STARLINK-3324,PAYLOAD,2022-12-10 14:31:35,15.08832452,0.0002336,53.218,89.1819,36.5937,323.5215,-2.8506e-05,-7.42e-06,0.0,0 STARLINK-3324,1 50814U 22001M   22344.60527756 -.00000742  00000-0 -28506-4 0  9996,2 50814  53.2180  89.1819 0002336  36.5937 323.5215 15.08832452 51502,6917.903,95.438,541.384,538.1519999999998,0.0
50814.0,STARLINK-3324,PAYLOAD,2022-12-11 06:25:24,15.08889225,0.0002312,53.218,86.2083,318.028,42.0534,-0.00072182,-0.00011774,0.0,0 STARLINK-3324,1 50814U 22001M   22345.26764604 -.00011774  00000-0 -72182-3 0  9999,2 50814  53.2180  86.2083 0002312 318.0280  42.0534 15.08889225 52874,6917.73,95.434,541.194,537.996,0.0
50814.0,STARLINK-3324,PAYLOAD,2022-12-11 12:47:00,15.08828646,0.0002288,53.2176,85.0187,34.0939,326.02,0.00032793,4.933e-05,0.0,0 STARLINK-3324,1 50814U 22001M   22345.53264290  .00004933  00000-0  32793-3 0  9996,2 50814  53.2176  85.0187 0002288  34.0939 326.0200 15.08828646 52919,6917.915,95.438,541.363,538.197,0.0
50814.0,STARLINK-3324,PAYLOAD,2022-12-11 14:22:23,15.08830278,0.0002227,53.218,84.7217,30.1225,329.9895,0.00030933,4.637e-05,0.0,0 STARLINK-3324,1 50814U 22001M   22345.59888216  .00004637  00000-0  30933-3 0  9997,2 50814  53.2180  84.7217 0002227  30.1225 329.9895 15.08830278 51658,6917.91,95.438,541.316,538.234,0.0
50814.0,STARLINK-3324,PAYLOAD,2022-12-12 12:37:46,15.08847897,0.0002175,53.218,80.5587,36.3263,323.7877,0.00030719,4.605e-05,0.0,0 STARLINK-3324,1 50814U 22001M   22346.52623599  .00004605  00000-0  30719-3 0  9999,2 50814  53.2180  80.5587 0002175  36.3263 323.7877 15.08847897 53068,6917.856,95.437,541.226,538.217,0.0
50814.0,STARLINK-3324,PAYLOAD,2022-12-12 23:45:29,15.08843495,0.0002875,53.218,78.4802,31.464,328.6524,8.539299999999999e-05,1.071e-05,0.0,0 STARLINK-3324,1 50814U 22001M   22346.98991917  .00001071  00000-0  85393-4 0  9994,2 50814  53.2180  78.4802 0002875  31.4640 328.6524 15.08843495 53137,6917.87,95.437,541.724,537.746,0.0
50814.0,STARLINK-3324,PAYLOAD,2022-12-13 09:17:47,15.08843698,0.0002321,53.2174,76.6935,32.3208,327.7926,0.00011384,1.524e-05,0.0,0 STARLINK-3324,1 50814U 22001M   22347.38735789  .00001524  00000-0  11384-3 0  9993,2 50814  53.2174  76.6935 0002321  32.3208 327.7926 15.08843698 51929,6917.869000000002,95.437,541.34,538.128,0.0
50814.0,STARLINK-3324,PAYLOAD,2022-12-13 15:39:20,15.0884764,0.0002788,53.2173,75.5058,32.2732,327.843,0.00017759,2.54e-05,0.0,0 STARLINK-3324,1 50814U 22001M   22347.65231629  .00002540  00000-0  17759-3 0  9998,2 50814  53.2173  75.5058 0002788  32.2732 327.8430 15.08847640 51966,6917.857,95.437,541.651,537.793,0.0
50814.0,STARLINK-3324,PAYLOAD,2022-12-14 05:57:47,15.08853894,0.0002677,53.2171,72.8288,35.36,324.7569,0.00018915,2.724e-05,0.0,0 STARLINK-3324,1 50814U 22001M   22348.24846969  .00002724  00000-0  18915-3 0  9992,2 50814  53.2171  72.8288 0002677  35.3600 324.7569 15.08853894 53323,6917.8380000000025,95.437,541.555,537.851,0.0
